STARS-X                 
1 69502U 26132A   26193.05274486  .00001236  00000+0  10643-3 0  9991
2 69502  97.6886 256.3979 0014256 175.9182 184.2160 14.99104778  4501
PETREL                  
1 69503U 26132B   26193.05103872  .00001007  00000+0  87421-4 0  9997
2 69503  97.6914 256.4116 0014144 177.7570 182.3719 14.99182309  4500
BRO-22                  
1 69504U 26132C   26192.97189105  .00000633  00000+0  55871-4 0  9999
2 69504  97.6832 256.3344 0016210 192.4467 167.6358 14.99799758  4492
HORN-L                  
1 69505U 26132D   26191.59874568  .00002811  00000+0  16993-3 0  9992
2 69505  97.6828 255.1999 0028853 224.9163 134.9732 15.11180435  4305
VERTECS                 
1 69506U 26132E   26193.14900223  .00001058  00000+0  87445-4 0  9997
2 69506  97.6825 256.5726 0015470 217.0754 142.9402 15.00985096  4516
HORN-R                  
1 69507U 26132F   26193.03617388  .00000519  00000+0  40121-4 0  9994
2 69507  97.6866 256.5489 0018099 216.9812 143.0168 15.05776636  4504
STARLINK-37536          
1 69508U 26133A   26193.41749219  .00033365  00000+0  60474-3 0  9994
2 69508  53.1600 198.1375 0000785 246.9834 113.1092 15.49339706  4722
STARLINK-37341          
1 69509U 26133B   26193.35484330  .00046301  00000+0  83437-3 0  9996
2 69509  53.1584 198.4555 0002041  88.5342 271.5901 15.49350910  4726
STARLINK-36536          
1 69510U 26133C   26193.58335648 -.00000631  00000+0 -71934-5 0  9999
2 69510  53.1586 196.8220 0001195  69.3288  31.5157 15.35401090  6007
STARLINK-37420          
1 69511U 26133D   26193.58335648 -.00004709  00000+0 -13194-3 0  9992
2 69511  53.1599 196.5664 0001143  70.1774 156.2456 15.33546505  5953
STARLINK-37511          
1 69512U 26133E   26193.58335648 -.00004164  00000+0 -11534-3 0  9994
2 69512  53.1597 196.6286 0001074  86.2707 109.4332 15.33550670  5951
STARLINK-37552          
1 69513U 26133F   26193.48328487  .00034271  00000+0  62115-3 0  9998
2 69513  53.1583 197.8298 0001947 112.6991 247.4224 15.49326464  6000
STARLINK-37607          
1 69514U 26133G   26193.58335648  .00002958  00000+0  95659-4 0  9994
2 69514  53.1593 196.7142 0001416 108.1884  43.8312 15.35403432  5955
STARLINK-37232          
1 69515U 26133H   26193.39402423  .00027373  00000+0  49858-3 0  9997
2 69515  53.1579 197.9758 0000859  91.5315 268.5792 15.49304749  4728
STARLINK-37323          
1 69516U 26133J   26193.58335648 -.00003260  00000+0 -87876-4 0  9997
2 69516  53.1591 196.4475 0001978 115.3099 168.6737 15.33525278  5950
STARLINK-37357          
1 69517U 26133K   26193.41805480  .00044149  00000+0  79615-3 0  9996
2 69517  53.1636 198.1349 0000667 336.9328  23.1651 15.49352707  5985
STARLINK-37408          
1 69518U 26133L   26192.51416289 -.00353335  00000+0 -67416-2 0  9999
2 69518  53.1597 201.7144 0000903 166.7623 193.3410 15.48863350  5866
STARLINK-37570          
1 69519U 26133M   26193.59019003  .00049264  00000+0  88651-3 0  9998
2 69519  53.1587 197.0647 0001136  79.4452 280.6685 15.49364746  6029
STARLINK-37510          
1 69520U 26133N   26193.39200906  .00025249  00000+0  46015-3 0  9997
2 69520  53.1619 197.9615 0000259 156.3885 203.7136 15.49333760  5995
STARLINK-37586          
1 69521U 26133P   26193.58335648 -.00008872  00000+0 -25883-3 0  9996
2 69521  53.1589 196.3921 0001322 100.4980 207.3343 15.33538984  5957
STARLINK-37379          
1 69522U 26133Q   26193.36476977  .00046104  00000+0  83088-3 0  9993
2 69522  53.1594 197.7834 0000953  28.0253 332.0807 15.49351053  5991
STARLINK-37429          
1 69523U 26133R   26193.53120625  .00033067  00000+0  59985-3 0  9992
2 69523  53.1592 197.4082 0001311  67.6681 292.4467 15.49320269  6015
STARLINK-37352          
1 69524U 26133S   26193.42788663  .00033853  00000+0  61341-3 0  9995
2 69524  53.1591 197.4644 0000336 275.6893  84.4077 15.49340479  6001
STARLINK-37490          
1 69525U 26133T   26193.58335648 -.00004002  00000+0 -10397-3 0  9995
2 69525  53.1590 196.3835 0001754  81.9051 229.9460 15.35371935  6008
STARLINK-37438          
1 69526U 26133U   26192.99037005  .00037158  00000+0  67234-3 0  9994
2 69526  53.1590 199.7119 0000938 102.1197 257.9917 15.49335936  5936
STARLINK-37484          
1 69527U 26133V   26193.58335648 -.00010284  00000+0 -28428-3 0  9990
2 69527  53.1589 196.3736 0001074  58.3463 257.5925 15.35403134  6008
STARLINK-37523          
1 69528U 26133W   26193.42512146  .00030259  00000+0  54981-3 0  9999
2 69528  53.1597 197.4458 0000774  34.5832 325.5228 15.49318945  6005
STARLINK-37369          
1 69529U 26133X   26193.48611250  .00056160  00000+0  10101-2 0  9996
2 69529  53.1591 197.1102 0000802 102.2244 257.8855 15.49321014  6010
STARLINK-37670          
1 69530U 26133Y   26193.04953446  .00035781  00000+0  64784-3 0  9999
2 69530  53.1602 199.3671 0001298  99.7548 260.3608 15.49335434  5944
STARLINK-37897          
1 69531U 26133Z   26193.58335648 -.02729526  00000+0 -82083-1 0  9998
2 69531  53.1589 196.2512 0000589 130.3735 245.0893 15.37485957  5951
