OBJECT_NAME,OBJECT_ID,EPOCH,MEAN_MOTION,ECCENTRICITY,INCLINATION,RA_OF_ASC_NODE,ARG_OF_PERICENTER,MEAN_ANOMALY,EPHEMERIS_TYPE,CLASSIFICATION_TYPE,NORAD_CAT_ID,ELEMENT_SET_NO,REV_AT_EPOCH,BSTAR,MEAN_MOTION_DOT,MEAN_MOTION_DDOT
STARS-X,2026-132A,2026-07-12T01:15:57.155904,14.99104778,.00142563,97.6886,256.3979,175.9182,184.2160,0,U,69502,999,450,.10642823E-3,.1236E-4,0
PETREL,2026-132B,2026-07-12T01:13:29.745408,14.99182309,.00141444,97.6914,256.4116,177.7570,182.3719,0,U,69503,999,450,.87421445E-4,.1007E-4,0
BRO-22,2026-132C,2026-07-11T23:19:31.386720,14.99799758,.00162104,97.6832,256.3344,192.4467,167.6358,0,U,69504,999,449,.55871251E-4,.633E-5,0
HORN-L,2026-132D,2026-07-10T14:22:11.626752,15.11180435,.00288531,97.6828,255.1999,224.9163,134.9732,0,U,69505,999,430,.16993246E-3,.2811E-4,0
VERTECS,2026-132E,2026-07-12T03:34:33.792672,15.00985096,.00154707,97.6825,256.5726,217.0754,142.9402,0,U,69506,999,451,.87445238E-4,.1058E-4,0
HORN-R,2026-132F,2026-07-12T00:52:05.423232,15.05776636,.0018099,97.6866,256.5489,216.9812,143.0168,0,U,69507,999,450,.40120946E-4,.519E-5,0
STARLINK-37536,2026-133A,2026-07-12T10:01:11.325216,15.49339706,.00007856,53.1600,198.1375,246.9834,113.1092,0,U,69508,999,472,.60473568E-3,.33365E-3,0
STARLINK-37341,2026-133B,2026-07-12T08:30:58.461120,15.49350910,.00020411,53.1584,198.4555,88.5342,271.5901,0,U,69509,999,472,.83437082E-3,.46301E-3,0
STARLINK-36536,2026-133C,2026-07-12T14:00:01.999872,15.35401090,.0001195,53.1586,196.8220,69.3288,31.5157,0,U,69510,999,600,-.7193442E-5,-.631E-5,0
STARLINK-37420,2026-133D,2026-07-12T14:00:01.999872,15.33546505,.00011435,53.1599,196.5664,70.1774,156.2456,0,U,69511,999,595,-.13193761E-3,-.4709E-4,0
STARLINK-37511,2026-133E,2026-07-12T14:00:01.999872,15.33550670,.00010746,53.1597,196.6286,86.2707,109.4332,0,U,69512,999,595,-.11533814E-3,-.4164E-4,0
STARLINK-37552,2026-133F,2026-07-12T11:35:55.812768,15.49326464,.00019476,53.1583,197.8298,112.6991,247.4224,0,U,69513,999,600,.62114985E-3,.34271E-3,0
STARLINK-37607,2026-133G,2026-07-12T14:00:01.999872,15.35403432,.00014167,53.1593,196.7142,108.1884,43.8312,0,U,69514,999,595,.95659175E-4,.2958E-4,0
STARLINK-37232,2026-133H,2026-07-12T09:27:23.693472,15.49304749,.00008596,53.1579,197.9758,91.5315,268.5792,0,U,69515,999,472,.4985757E-3,.27373E-3,0
STARLINK-37323,2026-133J,2026-07-12T14:00:01.999872,15.33525278,.00019786,53.1591,196.4475,115.3099,168.6737,0,U,69516,999,595,-.87876248E-4,-.326E-4,0
STARLINK-37357,2026-133K,2026-07-12T10:01:59.934720,15.49352707,.00006673,53.1636,198.1349,336.9328,23.1651,0,U,69517,999,598,.79614836E-3,.44149E-3,0
STARLINK-37408,2026-133L,2026-07-11T12:20:23.673696,15.48863350,.00009033,53.1597,201.7144,166.7623,193.3410,0,U,69518,999,586,-.67415928E-2,-.353335E-2,0
STARLINK-37570,2026-133M,2026-07-12T14:09:52.418592,15.49364746,.00011365,53.1587,197.0647,79.4452,280.6685,0,U,69519,999,602,.8865116E-3,.49264E-3,0
STARLINK-37510,2026-133N,2026-07-12T09:24:29.582784,15.49333760,.00002599,53.1619,197.9615,156.3885,203.7136,0,U,69520,999,599,.4601527E-3,.25249E-3,0
STARLINK-37586,2026-133P,2026-07-12T14:00:01.999872,15.33538984,.0001322,53.1589,196.3921,100.4980,207.3343,0,U,69521,999,595,-.25883293E-3,-.8872E-4,0
STARLINK-37379,2026-133Q,2026-07-12T08:45:16.108128,15.49351053,.00009534,53.1594,197.7834,28.0253,332.0807,0,U,69522,999,599,.83088411E-3,.46104E-3,0
STARLINK-37429,2026-133R,2026-07-12T12:44:56.220000,15.49320269,.00013117,53.1592,197.4082,67.6681,292.4467,0,U,69523,999,601,.59985181E-3,.33067E-3,0
STARLINK-37352,2026-133S,2026-07-12T10:16:09.404832,15.49340479,.00003364,53.1591,197.4644,275.6893,84.4077,0,U,69524,999,600,.61340538E-3,.33853E-3,0
STARLINK-37490,2026-133T,2026-07-12T14:00:01.999872,15.35371935,.00017543,53.1590,196.3835,81.9051,229.9460,0,U,69525,999,600,-.10397402E-3,-.4002E-4,0
STARLINK-37438,2026-133U,2026-07-11T23:46:07.972320,15.49335936,.00009384,53.1590,199.7119,102.1197,257.9917,0,U,69526,999,593,.67234235E-3,.37158E-3,0
STARLINK-37484,2026-133V,2026-07-12T14:00:01.999872,15.35403134,.00010749,53.1589,196.3736,58.3463,257.5925,0,U,69527,999,600,-.28427647E-3,-.10284E-3,0
STARLINK-37523,2026-133W,2026-07-12T10:12:10.494144,15.49318945,.00007741,53.1597,197.4458,34.5832,325.5228,0,U,69528,999,600,.54981398E-3,.30259E-3,0
STARLINK-37369,2026-133X,2026-07-12T11:40:00.120000,15.49321014,.0000802,53.1591,197.1102,102.2244,257.8855,0,U,69529,999,601,.10101452E-2,.5616E-3,0
STARLINK-37670,2026-133Y,2026-07-12T01:11:19.777344,15.49335434,.00012983,53.1602,199.3671,99.7548,260.3608,0,U,69530,999,594,.64784023E-3,.35781E-3,0
STARLINK-37897,2026-133Z,2026-07-12T14:00:01.999872,15.37485957,.00005891,53.1589,196.2512,130.3735,245.0893,0,U,69531,999,595,-.82083362E-1,-.2729526E-1,0
